#aV2014  4 30  0  0  0.00000000     288 DD+AD WGS84 FIT  NGA
## 1790 259200.00000000   300.00000000 56777 0.0000000000000
+   32     1  2  3  4  5  6  7  8  9 10 11 12 13 14 15 16 17
+         18 19 20 21 22 23 24 25 26 27 28 29 30 31 32  0  0
+          0  0  0  0  0  0  0  0  0  0  0  0  0  0  0  0  0
+          0  0  0  0  0  0  0  0  0  0  0  0  0  0  0  0  0
+          0  0  0  0  0  0  0  0  0  0  0  0  0  0  0  0  0
++         2  2  2  2  2  2  2  2  2  2  2  2  2  2  2  2  2
++         2  2  2  2  2  2  2  2  2  2  2  2  2  2  2  0  0
++         0  0  0  0  0  0  0  0  0  0  0  0  0  0  0  0  0
++         0  0  0  0  0  0  0  0  0  0  0  0  0  0  0  0  0
++         0  0  0  0  0  0  0  0  0  0  0  0  0  0  0  0  0
%c cc cc ccc ccc cccc cccc cccc cccc ccccc ccccc ccccc ccccc
%c cc cc ccc ccc cccc cccc cccc cccc ccccc ccccc ccccc ccccc
%f  0.0000000  0.000000000  0.00000000000  0.000000000000000
%f  0.0000000  0.000000000  0.00000000000  0.000000000000000
%i    0    0    0    0      0      0      0      0         0
%i    0    0    0    0      0      0      0      0         0
/*      NGA, ST. LOUIS,MO.                                  
/*   EPHEMERIS COMPUTED FROM  1 DAYS OF DATA                
/*   EPOCHA SMOOTHER                                       
/* CCCCCCCCCCCCCCCCCCCCCCCCCCCCCCCCCCCCCCCCCCCCCCCCCCCCCCCCC
*  2014  4 30  4  0  0.00000000
P  1  20994.287774  10276.839388  12710.977447     10.518106                    
V  1   9050.421994  13542.098876 -25703.344749      0.013882                    
P  2 -12703.717357 -22255.951631   8177.350241    492.583139                    
V  2   8808.101307   5296.801029  28641.107554      0.021475                    
P  3  14224.256203  10611.009408 -20354.062453    358.402208                    
V  3 -22743.603826   9657.001606 -11006.561883      0.050701                    
P  4     43.848227 -19341.469657  17794.137124      6.867547                    
V  4  17319.499785  15843.550150  17119.942023      0.000020                    
P  5  -5194.201082 -20693.814615 -15751.031486   -375.889841                    
V  5   8362.237993 -18352.516499  21564.888506      0.023360                    
P  6  -6005.161794  25473.037333  -3932.483092   -157.868957                    
V  6  -3744.891452   3791.357132  31828.189247     -0.020163                    
P  7  16113.211888  -3021.455766 -20897.191230    340.917072                    
V  7  16802.513534  20605.398289   9619.461070      0.042113                    
P  8   9381.868714 -11321.258472 -21898.331505     13.226036                    
V  8  16521.365680  22818.666776  -5273.640666      0.002561                    
P  9   6131.810439 -14859.728012 -21643.884909    323.954320                    
V  9  17847.137292  19209.866359  -8520.291060      0.028817                    
P 10   8058.118804 -25060.821679   -705.099567   -123.583917                    
V 10   3724.608048    738.481171  31606.373758     -0.015543                    
P 11  23705.384332  12014.932511   1776.773731   -484.912362                    
V 11     31.567836   5606.173647 -29867.782386     -0.031852                    
P 12 -13754.663888  -4880.865179  22123.752702    201.828339                    
V 12   9713.070583 -26447.655092    421.409623      0.024319                    
P 13  26026.319774  -4814.718930  -3225.142261      4.641803                    
V 13   4095.036141   1703.573153  31678.708163     -0.038265                    
P 14 -14812.865561  13890.448181  17255.905744    177.196655                    
V 14 -21547.602628   1269.293466 -19912.814594     -0.034102                    
P 15 -21236.187781  -6084.437609 -15007.278170   -176.748457                    
V 15  17785.125815  -6832.928199 -22190.500969     -0.021670                    
P 16   3493.627074  20512.510053 -16330.776016   -220.821281                    
V 16  -9007.374053  18744.186559  22031.077642      0.018386                    
P 17  13479.041025 -14615.284432  17755.148210    -89.208572                    
V 17  22066.134195  -2055.036886 -18937.175433     -0.031884                    
P 18 -15957.905410  15265.545212 -14066.026856    316.317216                    
V 18   2619.245447 -18949.942994 -23152.154642      0.023043                    
P 19  19432.340403   9015.153354 -16120.906463   -454.031893                    
V 19 -19735.111493   3755.218901 -21430.237352     -0.022569                    
P 20  15679.269589   2574.735994  21095.360086    184.624052                    
V 20  -6666.326774  26536.207745   1766.364345      0.037722                    
P 21 -14648.228109   6599.102125 -20573.706533   -358.277417                    
V 21 -18166.771547 -20842.118745   5608.259400     -0.022170                    
P 22 -10439.329868  24052.894309  -3435.647061    230.571239                    
V 22  -2464.058338  -5682.482321 -30611.837717      0.026361                    
P 23  25100.863910   1694.471061   9245.688477    -16.548563                    
V 23 -10779.390623   4653.940349  28321.605966     -0.031612                    
P 24 -20937.342449 -14060.569000   8461.091465    -27.584388                    
V 24  -5301.086534  -9722.935445 -29104.618466     -0.006526                    
P 25 -16296.821690   9090.498532  18776.097415     22.931625                    
V 25   6179.164343 -23221.369912  16676.381327      0.007792                    
P 26 -10156.781548 -13397.764738 -21291.720487     93.525541                    
V 26  25212.228355  -3258.672111 -10011.403495     -0.115739                    
P 27   7742.909126  13613.862246 -21461.528151    -18.308696                    
V 27 -26534.329272   6122.668105  -5634.796768      0.012894                    
P 28  13120.493636 -22025.555120  -6057.580804    351.114407                    
V 28  -1178.799089   8677.009150 -31164.163455      0.029305                    
P 29 -26018.363425   5014.717608  -1352.118944    529.086797                    
V 29  -2148.780588  -2295.461103  31906.996565      0.027065                    
P 30   9514.673490 -12388.702750 -21487.429523     -5.295972                    
V 30  16899.035149  21411.180969  -4888.119676     -0.041059                    
P 31   3483.950801  20863.374570  16017.202492    334.256253                    
V 31 -14289.040606 -14303.808868  22248.909879     -0.000101                    
P 32   8527.962636  15988.436919  19651.298295   -439.110519                    
V 32 -10639.825032  22315.739650 -13043.854839      0.078809                    
EOF
